2025-313AL              
1 67282U 25313AL  26025.63665363  .00009718  00000+0  43723-3 0  9998
2 67282  97.4082 102.6411 0012172 135.3413 224.8805 15.21239366  4275
HORS 5                  
1 67283U 25313AM  26025.63463330  .00014984  00000+0  66760-3 0  9996
2 67283  97.4088 102.6467 0011908 135.2967 224.9230 15.21468019  4274
LOBACHEVSKY (RS83S)     
1 67284U 25313AN  26025.63730034  .00009690  00000+0  43714-3 0  9997
2 67284  97.4074 102.6372 0012099 135.2004 225.0211 15.21146544  4276
NASBSAT-2               
1 67285U 25313AP  26025.63346791  .00013330  00000+0  59375-3 0  9997
2 67285  97.4065 102.6391 0011575 136.6710 223.5438 15.21507596  4277
2025-313AQ              
1 67286U 25313AQ  26025.63290432  .00014609  00000+0  65013-3 0  9994
2 67286  97.4087 102.6564 0011224 131.9851 228.2343 15.21519987  4273
LUCA (RS90S)            
1 67287U 25313AR  26025.63138558  .00016142  00000+0  71486-3 0  9990
2 67287  97.4084 102.6590 0011127 133.7835 226.4324 15.21667331  4270
2025-313AS              
1 67288U 25313AS  26025.63353419  .00009959  00000+0  44565-3 0  9992
2 67288  97.4076 102.6506 0013031 126.5812 233.6625 15.21408190  4270
NASBSAT-1               
1 67289U 25313AT  26025.62890760  .00022290  00000+0  97724-3 0  9995
2 67289  97.4087 102.6625 0010895 134.1798 226.0335 15.21943767  4276
SAKHACUBE-CHOLBON (RS1*)
1 67290U 25313AU  26025.62981941  .00017527  00000+0  77333-3 0  9990
2 67290  97.4084 102.6608 0010785 133.1697 227.0443 15.21779426  4271
QMR-KWT-2 (RS95S)       
1 67291U 25313AV  26025.62862701  .00023133  00000+0  10138-2 0  9992
2 67291  97.4084 102.6626 0010624 133.4353 226.7769 15.21952743  4278
SITRO-AIS-64            
1 67292U 25313AW  26025.56232804  .00018055  00000+0  79425-3 0  9993
2 67292  97.4088 102.6003 0010501 133.1522 227.0594 15.21876822  4263
SCORPION (RS89S)        
1 67293U 25313AX  26025.63134220  .00007394  00000+0  33122-3 0  9993
2 67293  97.4087 102.6568 0012538 124.5202 235.7220 15.21471867  4273
