CCSDS_OMM_VERS = 2.0
CREATION_DATE  = 
ORIGINATOR     = 

OBJECT_NAME    = 2025-313AL
OBJECT_ID      = 2025-313AL
CENTER_NAME    = EARTH
REF_FRAME      = TEME
TIME_SYSTEM    = UTC
MEAN_ELEMENT_THEORY = SGP/SGP4

EPOCH          = 2026-01-25T15:16:46.873632
MEAN_MOTION    = 15.21239366
ECCENTRICITY   = .0012172
INCLINATION    = 97.4082
RA_OF_ASC_NODE = 102.6411
ARG_OF_PERICENTER = 135.3413
MEAN_ANOMALY   = 224.8805

EPHEMERIS_TYPE = 0
CLASSIFICATION_TYPE = U
NORAD_CAT_ID   = 67282
ELEMENT_SET_NO = 999
REV_AT_EPOCH   = 427
BSTAR          = .43722781E-3
MEAN_MOTION_DOT = .9718E-4
MEAN_MOTION_DDOT = 0

CCSDS_OMM_VERS = 2.0
CREATION_DATE  = 
ORIGINATOR     = 

OBJECT_NAME    = HORS 5
OBJECT_ID      = 2025-313AM
CENTER_NAME    = EARTH
REF_FRAME      = TEME
TIME_SYSTEM    = UTC
MEAN_ELEMENT_THEORY = SGP/SGP4

EPOCH          = 2026-01-25T15:13:52.317120
MEAN_MOTION    = 15.21468019
ECCENTRICITY   = .00119086
INCLINATION    = 97.4088
RA_OF_ASC_NODE = 102.6467
ARG_OF_PERICENTER = 135.2967
MEAN_ANOMALY   = 224.9230

EPHEMERIS_TYPE = 0
CLASSIFICATION_TYPE = U
NORAD_CAT_ID   = 67283
ELEMENT_SET_NO = 999
REV_AT_EPOCH   = 427
BSTAR          = .66759892E-3
MEAN_MOTION_DOT = .14984E-3
MEAN_MOTION_DDOT = 0

CCSDS_OMM_VERS = 2.0
CREATION_DATE  = 
ORIGINATOR     = 

OBJECT_NAME    = LOBACHEVSKY (RS83S)
OBJECT_ID      = 2025-313AN
CENTER_NAME    = EARTH
REF_FRAME      = TEME
TIME_SYSTEM    = UTC
MEAN_ELEMENT_THEORY = SGP/SGP4

EPOCH          = 2026-01-25T15:17:42.749376
MEAN_MOTION    = 15.21146544
ECCENTRICITY   = .00120992
INCLINATION    = 97.4074
RA_OF_ASC_NODE = 102.6372
ARG_OF_PERICENTER = 135.2004
MEAN_ANOMALY   = 225.0211

EPHEMERIS_TYPE = 0
CLASSIFICATION_TYPE = U
NORAD_CAT_ID   = 67284
ELEMENT_SET_NO = 999
REV_AT_EPOCH   = 427
BSTAR          = .43714407E-3
MEAN_MOTION_DOT = .969E-4
MEAN_MOTION_DDOT = 0

CCSDS_OMM_VERS = 2.0
CREATION_DATE  = 
ORIGINATOR     = 

OBJECT_NAME    = NASBSAT-2
OBJECT_ID      = 2025-313AP
CENTER_NAME    = EARTH
REF_FRAME      = TEME
TIME_SYSTEM    = UTC
MEAN_ELEMENT_THEORY = SGP/SGP4

EPOCH          = 2026-01-25T15:12:11.627424
MEAN_MOTION    = 15.21507596
ECCENTRICITY   = .0011575
INCLINATION    = 97.4065
RA_OF_ASC_NODE = 102.6391
ARG_OF_PERICENTER = 136.6710
MEAN_ANOMALY   = 223.5438

EPHEMERIS_TYPE = 0
CLASSIFICATION_TYPE = U
NORAD_CAT_ID   = 67285
ELEMENT_SET_NO = 999
REV_AT_EPOCH   = 427
BSTAR          = .59374672E-3
MEAN_MOTION_DOT = .1333E-3
MEAN_MOTION_DDOT = 0

CCSDS_OMM_VERS = 2.0
CREATION_DATE  = 
ORIGINATOR     = 

OBJECT_NAME    = 2025-313AQ
OBJECT_ID      = 2025-313AQ
CENTER_NAME    = EARTH
REF_FRAME      = TEME
TIME_SYSTEM    = UTC
MEAN_ELEMENT_THEORY = SGP/SGP4

EPOCH          = 2026-01-25T15:11:22.933248
MEAN_MOTION    = 15.21519987
ECCENTRICITY   = .00112243
INCLINATION    = 97.4087
RA_OF_ASC_NODE = 102.6564
ARG_OF_PERICENTER = 131.9851
MEAN_ANOMALY   = 228.2343

EPHEMERIS_TYPE = 0
CLASSIFICATION_TYPE = U
NORAD_CAT_ID   = 67286
ELEMENT_SET_NO = 999
REV_AT_EPOCH   = 427
BSTAR          = .6501296E-3
MEAN_MOTION_DOT = .14609E-3
MEAN_MOTION_DDOT = 0

CCSDS_OMM_VERS = 2.0
CREATION_DATE  = 
ORIGINATOR     = 

OBJECT_NAME    = LUCA (RS90S)
OBJECT_ID      = 2025-313AR
CENTER_NAME    = EARTH
REF_FRAME      = TEME
TIME_SYSTEM    = UTC
MEAN_ELEMENT_THEORY = SGP/SGP4

EPOCH          = 2026-01-25T15:09:11.714112
MEAN_MOTION    = 15.21667331
ECCENTRICITY   = .00111277
INCLINATION    = 97.4084
RA_OF_ASC_NODE = 102.6590
ARG_OF_PERICENTER = 133.7835
MEAN_ANOMALY   = 226.4324

EPHEMERIS_TYPE = 0
CLASSIFICATION_TYPE = U
NORAD_CAT_ID   = 67287
ELEMENT_SET_NO = 999
REV_AT_EPOCH   = 427
BSTAR          = .71485975E-3
MEAN_MOTION_DOT = .16142E-3
MEAN_MOTION_DDOT = 0

CCSDS_OMM_VERS = 2.0
CREATION_DATE  = 
ORIGINATOR     = 

OBJECT_NAME    = 2025-313AS
OBJECT_ID      = 2025-313AS
CENTER_NAME    = EARTH
REF_FRAME      = TEME
TIME_SYSTEM    = UTC
MEAN_ELEMENT_THEORY = SGP/SGP4

EPOCH          = 2026-01-25T15:12:17.354016
MEAN_MOTION    = 15.21408190
ECCENTRICITY   = .0013031
INCLINATION    = 97.4076
RA_OF_ASC_NODE = 102.6506
ARG_OF_PERICENTER = 126.5812
MEAN_ANOMALY   = 233.6625

EPHEMERIS_TYPE = 0
CLASSIFICATION_TYPE = U
NORAD_CAT_ID   = 67288
ELEMENT_SET_NO = 999
REV_AT_EPOCH   = 427
BSTAR          = .44565319E-3
MEAN_MOTION_DOT = .9959E-4
MEAN_MOTION_DDOT = 0

CCSDS_OMM_VERS = 2.0
CREATION_DATE  = 
ORIGINATOR     = 

OBJECT_NAME    = NASBSAT-1
OBJECT_ID      = 2025-313AT
CENTER_NAME    = EARTH
REF_FRAME      = TEME
TIME_SYSTEM    = UTC
MEAN_ELEMENT_THEORY = SGP/SGP4

EPOCH          = 2026-01-25T15:05:37.616640
MEAN_MOTION    = 15.21943767
ECCENTRICITY   = .00108959
INCLINATION    = 97.4087
RA_OF_ASC_NODE = 102.6625
ARG_OF_PERICENTER = 134.1798
MEAN_ANOMALY   = 226.0335

EPHEMERIS_TYPE = 0
CLASSIFICATION_TYPE = U
NORAD_CAT_ID   = 67289
ELEMENT_SET_NO = 999
REV_AT_EPOCH   = 427
BSTAR          = .97724286E-3
MEAN_MOTION_DOT = .2229E-3
MEAN_MOTION_DDOT = 0

CCSDS_OMM_VERS = 2.0
CREATION_DATE  = 
ORIGINATOR     = 

OBJECT_NAME    = SAKHACUBE-CHOLBON (RS18S)
OBJECT_ID      = 2025-313AU
CENTER_NAME    = EARTH
REF_FRAME      = TEME
TIME_SYSTEM    = UTC
MEAN_ELEMENT_THEORY = SGP/SGP4

EPOCH          = 2026-01-25T15:06:56.397024
MEAN_MOTION    = 15.21779426
ECCENTRICITY   = .00107855
INCLINATION    = 97.4084
RA_OF_ASC_NODE = 102.6608
ARG_OF_PERICENTER = 133.1697
MEAN_ANOMALY   = 227.0443

EPHEMERIS_TYPE = 0
CLASSIFICATION_TYPE = U
NORAD_CAT_ID   = 67290
ELEMENT_SET_NO = 999
REV_AT_EPOCH   = 427
BSTAR          = .7733264E-3
MEAN_MOTION_DOT = .17527E-3
MEAN_MOTION_DDOT = 0

CCSDS_OMM_VERS = 2.0
CREATION_DATE  = 
ORIGINATOR     = 

OBJECT_NAME    = QMR-KWT-2 (RS95S)
OBJECT_ID      = 2025-313AV
CENTER_NAME    = EARTH
REF_FRAME      = TEME
TIME_SYSTEM    = UTC
MEAN_ELEMENT_THEORY = SGP/SGP4

EPOCH          = 2026-01-25T15:05:13.373664
MEAN_MOTION    = 15.21952743
ECCENTRICITY   = .00106249
INCLINATION    = 97.4084
RA_OF_ASC_NODE = 102.6626
ARG_OF_PERICENTER = 133.4353
MEAN_ANOMALY   = 226.7769

EPHEMERIS_TYPE = 0
CLASSIFICATION_TYPE = U
NORAD_CAT_ID   = 67291
ELEMENT_SET_NO = 999
REV_AT_EPOCH   = 427
BSTAR          = .10138169E-2
MEAN_MOTION_DOT = .23133E-3
MEAN_MOTION_DDOT = 0

CCSDS_OMM_VERS = 2.0
CREATION_DATE  = 
ORIGINATOR     = 

OBJECT_NAME    = SITRO-AIS-64
OBJECT_ID      = 2025-313AW
CENTER_NAME    = EARTH
REF_FRAME      = TEME
TIME_SYSTEM    = UTC
MEAN_ELEMENT_THEORY = SGP/SGP4

EPOCH          = 2026-01-25T13:29:45.142656
MEAN_MOTION    = 15.21876822
ECCENTRICITY   = .00105012
INCLINATION    = 97.4088
RA_OF_ASC_NODE = 102.6003
ARG_OF_PERICENTER = 133.1522
MEAN_ANOMALY   = 227.0594

EPHEMERIS_TYPE = 0
CLASSIFICATION_TYPE = U
NORAD_CAT_ID   = 67292
ELEMENT_SET_NO = 999
REV_AT_EPOCH   = 426
BSTAR          = .79424624E-3
MEAN_MOTION_DOT = .18055E-3
MEAN_MOTION_DDOT = 0

CCSDS_OMM_VERS = 2.0
CREATION_DATE  = 
ORIGINATOR     = 

OBJECT_NAME    = SCORPION (RS89S)
OBJECT_ID      = 2025-313AX
CENTER_NAME    = EARTH
REF_FRAME      = TEME
TIME_SYSTEM    = UTC
MEAN_ELEMENT_THEORY = SGP/SGP4

EPOCH          = 2026-01-25T15:09:07.966080
MEAN_MOTION    = 15.21471867
ECCENTRICITY   = .00125381
INCLINATION    = 97.4087
RA_OF_ASC_NODE = 102.6568
ARG_OF_PERICENTER = 124.5202
MEAN_ANOMALY   = 235.7220

EPHEMERIS_TYPE = 0
CLASSIFICATION_TYPE = U
NORAD_CAT_ID   = 67293
ELEMENT_SET_NO = 999
REV_AT_EPOCH   = 427
BSTAR          = .3312234E-3
MEAN_MOTION_DOT = .7394E-4
MEAN_MOTION_DDOT = 0

